{
  "type": "FeatureCollection",
  "features": [
    {
      "type": "Feature",
      "properties": {
        "norad_id": 36371,
        "name": "COSMOS 2251 DEB",
        "group": "cosmos-2251-debris",
        "lat": 16.139737836350275,
        "lon": 164.92172089237167,
        "alt_km": 666.2427096344691,
        "timestamp": "2025-12-13T10:41:26.163438+00:00",
        "meta_object_name": "COSMOS 2251 DEB",
        "meta_object_id": "1993-036AYY",
        "meta_epoch": "2025-12-12T18:17:15.956736",
        "meta_mean_motion": 14.70602609,
        "meta_eccentricity": 0.00097166,
        "meta_inclination": 74.0131,
        "meta_ra_of_asc_node": 161.4904,
        "meta_arg_of_pericenter": 199.7119,
        "meta_mean_anomaly": 160.3678,
        "meta_ephemeris_type": 0,
        "meta_classification_type": "U",
        "meta_norad_cat_id": 36371,
        "meta_element_set_no": 999,
        "meta_rev_at_epoch": 71445,
        "meta_bstar": 0.0026434155,
        "meta_mean_motion_dot": 0.00016092,
        "meta_mean_motion_ddot": 0,
        "tle_line1": "1 36371U 93036AYY 25346.76199024  .00016092  00000+0  26434-2 0  9997",
        "tle_line2": "2 36371  74.0131 161.4904 0009716 199.7119 160.3678 14.70602609714450"
      },
      "geometry": {
        "type": "Point",
        "coordinates": [
          164.92172089237167,
          16.139737836350275
        ]
      }
    },
    {
      "type": "Feature",
      "properties": {
        "norad_id": 36379,
        "name": "COSMOS 2251 DEB",
        "group": "cosmos-2251-debris",
        "lat": 73.8810497973179,
        "lon": 42.75176301955616,
        "alt_km": 733.6828729354247,
        "timestamp": "2025-12-13T10:41:26.163448+00:00",
        "meta_object_name": "COSMOS 2251 DEB",
        "meta_object_id": "1993-036AZG",
        "meta_epoch": "2025-12-12T04:15:51.799968",
        "meta_mean_motion": 14.36076835,
        "meta_eccentricity": 0.00445791,
        "meta_inclination": 74.0123,
        "meta_ra_of_asc_node": 307.8561,
        "meta_arg_of_pericenter": 76.9262,
        "meta_mean_anomaly": 303.3834,
        "meta_ephemeris_type": 0,
        "meta_classification_type": "U",
        "meta_norad_cat_id": 36379,
        "meta_element_set_no": 999,
        "meta_rev_at_epoch": 64820,
        "meta_bstar": 0.00045972684,
        "meta_mean_motion_dot": 1.327e-05,
        "meta_mean_motion_ddot": 0,
        "tle_line1": "1 36379U 93036AZG 25346.17768287  .00001327  00000+0  45973-3 0  9998",
        "tle_line2": "2 36379  74.0123 307.8561 0044579  76.9262 303.3834 14.36076835648205"
      },
      "geometry": {
        "type": "Point",
        "coordinates": [
          42.75176301955616,
          73.8810497973179
        ]
      }
    },
    {
      "type": "Feature",
      "properties": {
        "norad_id": 36385,
        "name": "COSMOS 2251 DEB",
        "group": "cosmos-2251-debris",
        "lat": 41.80366249304876,
        "lon": -41.739359711096775,
        "alt_km": 746.4042632677083,
        "timestamp": "2025-12-13T10:41:26.163459+00:00",
        "meta_object_name": "COSMOS 2251 DEB",
        "meta_object_id": "1993-036AZN",
        "meta_epoch": "2025-12-12T21:01:44.669280",
        "meta_mean_motion": 14.72571648,
        "meta_eccentricity": 0.01412662,
        "meta_inclination": 73.9694,
        "meta_ra_of_asc_node": 154.2714,
        "meta_arg_of_pericenter": 328.6533,
        "meta_mean_anomaly": 30.6271,
        "meta_ephemeris_type": 0,
        "meta_classification_type": "U",
        "meta_norad_cat_id": 36385,
        "meta_element_set_no": 999,
        "meta_rev_at_epoch": 85104,
        "meta_bstar": 0.0019203945,
        "meta_mean_motion_dot": 0.00014301,
        "meta_mean_motion_ddot": 0,
        "tle_line1": "1 36385U 93036AZN 25346.87621145  .00014301  00000+0  19204-2 0  9996",
        "tle_line2": "2 36385  73.9694 154.2714 0141266 328.6533  30.6271 14.72571648851041"
      },
      "geometry": {
        "type": "Point",
        "coordinates": [
          -41.739359711096775,
          41.80366249304876
        ]
      }
    },
    {
      "type": "Feature",
      "properties": {
        "norad_id": 36420,
        "name": "COSMOS 2251 DEB",
        "group": "cosmos-2251-debris",
        "lat": -25.851620987468568,
        "lon": -93.78632885241537,
        "alt_km": 762.7838482957868,
        "timestamp": "2025-12-13T10:41:26.163470+00:00",
        "meta_object_name": "COSMOS 2251 DEB",
        "meta_object_id": "1993-036AZT",
        "meta_epoch": "2025-12-09T05:12:09.080064",
        "meta_mean_motion": 14.36895704,
        "meta_eccentricity": 0.001793,
        "meta_inclination": 74.0374,
        "meta_ra_of_asc_node": 281.9559,
        "meta_arg_of_pericenter": 10.5601,
        "meta_mean_anomaly": 57.255,
        "meta_ephemeris_type": 0,
        "meta_classification_type": "U",
        "meta_norad_cat_id": 36420,
        "meta_element_set_no": 999,
        "meta_rev_at_epoch": 84986,
        "meta_bstar": 0.00029505,
        "meta_mean_motion_dot": 8.48e-06,
        "meta_mean_motion_ddot": 0,
        "tle_line1": "1 36420U 93036AZT 25343.21677176  .00000848  00000+0  29505-3 0  9993",
        "tle_line2": "2 36420  74.0374 281.9559 0017930  10.5601  57.2550 14.36895704849860"
      },
      "geometry": {
        "type": "Point",
        "coordinates": [
          -93.78632885241537,
          -25.851620987468568
        ]
      }
    },
    {
      "type": "Feature",
      "properties": {
        "norad_id": 36430,
        "name": "COSMOS 2251 DEB",
        "group": "cosmos-2251-debris",
        "lat": -27.0229603713631,
        "lon": 98.83798888684215,
        "alt_km": 785.6543885490801,
        "timestamp": "2025-12-13T10:41:26.163480+00:00",
        "meta_object_name": "COSMOS 2251 DEB",
        "meta_object_id": "1993-036BAD",
        "meta_epoch": "2025-12-07T15:14:59.696160",
        "meta_mean_motion": 14.27773173,
        "meta_eccentricity": 0.00973352,
        "meta_inclination": 74.0036,
        "meta_ra_of_asc_node": 117.7938,
        "meta_arg_of_pericenter": 268.8676,
        "meta_mean_anomaly": 90.1319,
        "meta_ephemeris_type": 0,
        "meta_classification_type": "U",
        "meta_norad_cat_id": 36430,
        "meta_element_set_no": 999,
        "meta_rev_at_epoch": 64484,
        "meta_bstar": 0.00083938099,
        "meta_mean_motion_dot": 2.154e-05,
        "meta_mean_motion_ddot": 0,
        "tle_line1": "1 36430U 93036BAD 25341.63541315  .00002154  00000+0  83938-3 0  9995",
        "tle_line2": "2 36430  74.0036 117.7938 0097335 268.8676  90.1319 14.27773173644845"
      },
      "geometry": {
        "type": "Point",
        "coordinates": [
          98.83798888684215,
          -27.0229603713631
        ]
      }
    },
    {
      "type": "Feature",
      "properties": {
        "norad_id": 36437,
        "name": "COSMOS 2251 DEB",
        "group": "cosmos-2251-debris",
        "lat": 73.26181939826617,
        "lon": 105.90521907636334,
        "alt_km": 667.6730839720094,
        "timestamp": "2025-12-13T10:41:26.163491+00:00",
        "meta_object_name": "COSMOS 2251 DEB",
        "meta_object_id": "1993-036BAL",
        "meta_epoch": "2025-12-12T21:14:34.610784",
        "meta_mean_motion": 14.70699745,
        "meta_eccentricity": 0.00231229,
        "meta_inclination": 73.942,
        "meta_ra_of_asc_node": 33.7138,
        "meta_arg_of_pericenter": 265.0024,
        "meta_mean_anomaly": 94.8507,
        "meta_ephemeris_type": 0,
        "meta_classification_type": "U",
        "meta_norad_cat_id": 36437,
        "meta_element_set_no": 999,
        "meta_rev_at_epoch": 66053,
        "meta_bstar": 0.0021741293,
        "meta_mean_motion_dot": 0.00013297,
        "meta_mean_motion_ddot": 0,
        "tle_line1": "1 36437U 93036BAL 25346.88512281  .00013297  00000+0  21741-2 0  9997",
        "tle_line2": "2 36437  73.9420  33.7138 0023122 265.0024  94.8507 14.70699745660539"
      },
      "geometry": {
        "type": "Point",
        "coordinates": [
          105.90521907636334,
          73.26181939826617
        ]
      }
    },
    {
      "type": "Feature",
      "properties": {
        "norad_id": 36439,
        "name": "COSMOS 2251 DEB",
        "group": "cosmos-2251-debris",
        "lat": 60.84052295684823,
        "lon": 66.60863705732044,
        "alt_km": 895.5706988088741,
        "timestamp": "2025-12-13T10:41:26.163501+00:00",
        "meta_object_name": "COSMOS 2251 DEB",
        "meta_object_id": "1993-036BAN",
        "meta_epoch": "2025-12-11T12:04:38.629632",
        "meta_mean_motion": 13.47792153,
        "meta_eccentricity": 0.04277143,
        "meta_inclination": 73.9683,
        "meta_ra_of_asc_node": 38.6892,
        "meta_arg_of_pericenter": 10.8049,
        "meta_mean_anomaly": 350.189,
        "meta_ephemeris_type": 0,
        "meta_classification_type": "U",
        "meta_norad_cat_id": 36439,
        "meta_element_set_no": 999,
        "meta_rev_at_epoch": 58596,
        "meta_bstar": 0.0014143946,
        "meta_mean_motion_dot": 1.502e-05,
        "meta_mean_motion_ddot": 0,
        "tle_line1": "1 36439U 93036BAN 25345.50322488  .00001502  00000+0  14144-2 0  9990",
        "tle_line2": "2 36439  73.9683  38.6892 0427714  10.8049 350.1890 13.47792153585967"
      },
      "geometry": {
        "type": "Point",
        "coordinates": [
          66.60863705732044,
          60.84052295684823
        ]
      }
    }
  ]
}